{"type": "FeatureCollection", "features": [ {"type": "Feature", "properties": {"norad_id": 38755, "name": "SPOT 6", "group": "resource", "lat": -72.76193259983746, "lon": -161.489164406789, "alt_km": 705.6954337514144, "timestamp": "2025-12-07T03:52:32.126911+00:00", "meta": {"OBJECT_NAME": "SPOT 6", "OBJECT_ID": "2012-047A", "EPOCH": "2025-12-06T15:11:11.344416", "MEAN_MOTION": 14.58594718, "ECCENTRICITY": 0.00010691, "INCLINATION": 98.1582, "RA_OF_ASC_NODE": 45.5295, "ARG_OF_PERICENTER": 101.5765, "MEAN_ANOMALY": 258.5555, "EPHEMERIS_TYPE": 0, "CLASSIFICATION_TYPE": "U", "NORAD_CAT_ID": 38755, "ELEMENT_SET_NO": 999, "REV_AT_EPOCH": 70498, "BSTAR": 0.00019454907, "MEAN_MOTION_DOT": 8.6e-06, "MEAN_MOTION_DDOT": 0}, "tle": {"line1": "1 38755U 12047A   25340.63277019  .00000860  00000+0  19455-3 0  9991", "line2": "2 38755  98.1582  45.5295 0001069 101.5765 258.5555 14.58594718704989"}}, "geometry": {"type": "Point", "coordinates": [-161.489164406789, -72.76193259983746]}}, {"type": "Feature", "properties": {"norad_id": 39019, "name": "PLEIADES 1B", "group": "resource", "lat": 25.318163275774122, "lon": -122.19667870778596, "alt_km": 696.7780911640548, "timestamp": "2025-12-07T03:52:32.126922+00:00", "meta": {"OBJECT_NAME": "PLEIADES 1B", "OBJECT_ID": "2012-068A", "EPOCH": "2025-12-06T15:38:43.496448", "MEAN_MOTION": 14.58544105, "ECCENTRICITY": 0.00012249, "INCLINATION": 98.1803, "RA_OF_ASC_NODE": 53.3997, "ARG_OF_PERICENTER": 87.1374, "MEAN_ANOMALY": 272.9965, "EPHEMERIS_TYPE": 0, "CLASSIFICATION_TYPE": "U", "NORAD_CAT_ID": 39019, "ELEMENT_SET_NO": 999, "REV_AT_EPOCH": 69278, "BSTAR": 0.00019759013, "MEAN_MOTION_DOT": 8.73e-06, "MEAN_MOTION_DDOT": 0}, "tle": {"line1": "1 39019U 12068A   25340.65189232  .00000873  00000+0  19759-3 0  9990", "line2": "2 39019  98.1803  53.3997 0001224  87.1374 272.9965 14.58544105692787"}}, "geometry": {"type": "Point", "coordinates": [-122.19667870778596, 25.318163275774122]}}, {"type": "Feature", "properties": {"norad_id": 39030, "name": "GOKTURK 2", "group": "resource", "lat": 33.78210272711249, "lon": 177.90271697805878, "alt_km": 641.9054392521957, "timestamp": "2025-12-07T03:52:32.126932+00:00", "meta": {"OBJECT_NAME": "GOKTURK 2", "OBJECT_ID": "2012-073A", "EPOCH": "2025-12-06T14:41:56.252832", "MEAN_MOTION": 14.75278391, "ECCENTRICITY": 8.595e-05, "INCLINATION": 97.6904, "RA_OF_ASC_NODE": 182.5673, "ARG_OF_PERICENTER": 101.3827, "MEAN_ANOMALY": 258.748, "EPHEMERIS_TYPE": 0, "CLASSIFICATION_TYPE": "U", "NORAD_CAT_ID": 39030, "ELEMENT_SET_NO": 999, "REV_AT_EPOCH": 69611, "BSTAR": 0.00018813882, "MEAN_MOTION_DOT": 1.227e-05, "MEAN_MOTION_DDOT": 0}, "tle": {"line1": "1 39030U 12073A   25340.61245663  .00001227  00000+0  18814-3 0  9991", "line2": "2 39030  97.6904 182.5673 0000859 101.3827 258.7480 14.75278391696112"}}, "geometry": {"type": "Point", "coordinates": [177.90271697805878, 33.78210272711249]}}, {"type": "Feature", "properties": {"norad_id": 39084, "name": "LANDSAT 8", "group": "resource", "lat": -6.90061309325696, "lon": 50.31806809226049, "alt_km": 706.387665772314, "timestamp": "2025-12-07T03:52:32.126942+00:00", "meta": {"OBJECT_NAME": "LANDSAT 8", "OBJECT_ID": "2013-008A", "EPOCH": "2025-12-06T14:43:22.439424", "MEAN_MOTION": 14.57104999, "ECCENTRICITY": 0.00011456, "INCLINATION": 98.208, "RA_OF_ASC_NODE": 48.7772, "ARG_OF_PERICENTER": 86.1685, "MEAN_ANOMALY": 273.9644, "EPHEMERIS_TYPE": 0, "CLASSIFICATION_TYPE": "U", "NORAD_CAT_ID": 39084, "ELEMENT_SET_NO": 999, "REV_AT_EPOCH": 66985, "BSTAR": 0.00019637687, "MEAN_MOTION_DOT": 8.39e-06, "MEAN_MOTION_DDOT": 0}, "tle": {"line1": "1 39084U 13008A   25340.61345416  .00000839  00000+0  19638-3 0  9999", "line2": "2 39084  98.2080  48.7772 0001145  86.1685 273.9644 14.57104999669851"}}, "geometry": {"type": "Point", "coordinates": [50.31806809226049, -6.90061309325696]}}, {"type": "Feature", "properties": {"norad_id": 39086, "name": "SARAL", "group": "resource", "lat": 70.91278599715459, "lon": 10.936372561734549, "alt_km": 773.7542513549106, "timestamp": "2025-12-07T03:52:32.126953+00:00", "meta": {"OBJECT_NAME": "SARAL", "OBJECT_ID": "2013-009A", "EPOCH": "2025-12-06T13:58:09.079392", "MEAN_MOTION": 14.32753842, "ECCENTRICITY": 0.00027236, "INCLINATION": 98.5506, "RA_OF_ASC_NODE": 164.5928, "ARG_OF_PERICENTER": 120.4746, "MEAN_ANOMALY": 239.6707, "EPHEMERIS_TYPE": 0, "CLASSIFICATION_TYPE": "U", "NORAD_CAT_ID": 39086, "ELEMENT_SET_NO": 999, "REV_AT_EPOCH": 66802, "BSTAR": 0.00011512136, "MEAN_MOTION_DOT": 2.7e-06, "MEAN_MOTION_DDOT": 0}, "tle": {"line1": "1 39086U 13009A   25340.58204953  .00000270  00000+0  11512-3 0  9990", "line2": "2 39086  98.5506 164.5928 0002723 120.4746 239.6707 14.32753842668029"}}, "geometry": {"type": "Point", "coordinates": [10.936372561734549, 70.91278599715459]}}, {"type": "Feature", "properties": {"norad_id": 39150, "name": "GAOFEN-1", "group": "resource", "lat": 81.53519486582968, "lon": -17.63857493353014, "alt_km": 629.2687938584222, "timestamp": "2025-12-07T03:52:32.126964+00:00", "meta": {"OBJECT_NAME": "GAOFEN-1", "OBJECT_ID": "2013-018A", "EPOCH": "2025-12-06T14:28:14.753856", "MEAN_MOTION": 14.76517792, "ECCENTRICITY": 0.0017868, "INCLINATION": 97.9335, "RA_OF_ASC_NODE": 51.3706, "ARG_OF_PERICENTER": 162.2124, "MEAN_ANOMALY": 197.9715, "EPHEMERIS_TYPE": 0, "CLASSIFICATION_TYPE": "U", "NORAD_CAT_ID": 39150, "ELEMENT_SET_NO": 999, "REV_AT_EPOCH": 67982, "BSTAR": 0.00024056446, "MEAN_MOTION_DOT": 1.63e-05, "MEAN_MOTION_DDOT": 0}, "tle": {"line1": "1 39150U 13018A   25340.60294854  .00001630  00000+0  24056-3 0  9992", "line2": "2 39150  97.9335  51.3706 0017868 162.2124 197.9715 14.76517792679826"}}, "geometry": {"type": "Point", "coordinates": [-17.63857493353014, 81.53519486582968]}}, {"type": "Feature", "properties": {"norad_id": 39160, "name": "VNREDSAT 1", "group": "resource", "lat": 22.22704428206952, "lon": 33.363072780995495, "alt_km": 676.6034699149259, "timestamp": "2025-12-07T03:52:32.126974+00:00", "meta": {"OBJECT_NAME": "VNREDSAT 1", "OBJECT_ID": "2013-021B", "EPOCH": "2025-12-06T14:39:32.169600", "MEAN_MOTION": 14.64909075, "ECCENTRICITY": 0.00013276, "INCLINATION": 97.9382, "RA_OF_ASC_NODE": 36.1004, "ARG_OF_PERICENTER": 83.2785, "MEAN_ANOMALY": 276.857, "EPHEMERIS_TYPE": 0, "CLASSIFICATION_TYPE": "U", "NORAD_CAT_ID": 39160, "ELEMENT_SET_NO": 999, "REV_AT_EPOCH": 67209, "BSTAR": 0.0002674067, "MEAN_MOTION_DOT": 1.384e-05, "MEAN_MOTION_DDOT": 0}, "tle": {"line1": "1 39160U 13021B   25340.61078900  .00001384  00000+0  26741-3 0  9999", "line2": "2 39160  97.9382  36.1004 0001327  83.2785 276.8570 14.64909075672093"}}, "geometry": {"type": "Point", "coordinates": [33.363072780995495, 22.22704428206952]}}, {"type": "Feature", "properties": {"norad_id": 39227, "name": "ARIRANG-5 (KOMPSAT-5)", "group": "resource", "lat": 26.87515869096778, "lon": 161.6575687178693, "alt_km": 550.055223057122, "timestamp": "2025-12-07T03:52:32.126985+00:00", "meta": {"OBJECT_NAME": "ARIRANG-5 (KOMPSAT-5)", "OBJECT_ID": "2013-042A", "EPOCH": "2025-12-06T14:59:09.208896", "MEAN_MOTION": 15.04521641, "ECCENTRICITY": 0.00039769, "INCLINATION": 97.6151, "RA_OF_ASC_NODE": 165.0161, "ARG_OF_PERICENTER": 74.2592, "MEAN_ANOMALY": 285.9073, "EPHEMERIS_TYPE": 0, "CLASSIFICATION_TYPE": "U", "NORAD_CAT_ID": 39227, "ELEMENT_SET_NO": 999, "REV_AT_EPOCH": 67490, "BSTAR": 0.0002064538, "MEAN_MOTION_DOT": 2.832e-05, "MEAN_MOTION_DDOT": 0}, "tle": {"line1": "1 39227U 13042A   25340.62441214  .00002832  00000+0  20645-3 0  9995", "line2": "2 39227  97.6151 165.0161 0003976  74.2592 285.9073 15.04521641674907"}}, "geometry": {"type": "Point", "coordinates": [161.6575687178693, 26.87515869096778]}}, {"type": "Feature", "properties": {"norad_id": 39418, "name": "SKYSAT-A", "group": "resource", "lat": -76.55301318663084, "lon": 178.55661328559685, "alt_km": 524.6563758242337, "timestamp": "2025-12-07T03:52:32.126997+00:00", "meta": {"OBJECT_NAME": "SKYSAT-A", "OBJECT_ID": "2013-066C", "EPOCH": "2025-12-06T15:36:42.297984", "MEAN_MOTION": 15.11535513, "ECCENTRICITY": 0.0020539, "INCLINATION": 97.4111, "RA_OF_ASC_NODE": 31.0443, "ARG_OF_PERICENTER": 259.079, "MEAN_ANOMALY": 100.8129, "EPHEMERIS_TYPE": 0, "CLASSIFICATION_TYPE": "U", "NORAD_CAT_ID": 39418, "ELEMENT_SET_NO": 999, "REV_AT_EPOCH": 65938, "BSTAR": 0.00034849063, "MEAN_MOTION_DOT": 5.873e-05, "MEAN_MOTION_DDOT": 0}, "tle": {"line1": "1 39418U 13066C   25340.65048956  .00005873  00000+0  34849-3 0  9991", "line2": "2 39418  97.4111  31.0443 0020539 259.0790 100.8129 15.11535513659388"}}, "geometry": {"type": "Point", "coordinates": [178.55661328559685, -76.55301318663084]}}, {"type": "Feature", "properties": {"norad_id": 39419, "name": "DUBAISAT-2", "group": "resource", "lat": 72.22016437172242, "lon": 175.80276023063468, "alt_km": 538.9157345744907, "timestamp": "2025-12-07T03:52:32.127008+00:00", "meta": {"OBJECT_NAME": "DUBAISAT-2", "OBJECT_ID": "2013-066D", "EPOCH": "2025-12-06T14:40:08.524128", "MEAN_MOTION": 15.08264451, "ECCENTRICITY": 0.00111329, "INCLINATION": 97.4439, "RA_OF_ASC_NODE": 331.2078, "ARG_OF_PERICENTER": 343.4327, "MEAN_ANOMALY": 16.6536, "EPHEMERIS_TYPE": 0, "CLASSIFICATION_TYPE": "U", "NORAD_CAT_ID": 39419, "ELEMENT_SET_NO": 999, "REV_AT_EPOCH": 65734, "BSTAR": 0.00051981421, "MEAN_MOTION_DOT": 8.008e-05, "MEAN_MOTION_DDOT": 0}, "tle": {"line1": "1 39419U 13066D   25340.61120977  .00008008  00000+0  51981-3 0  9991", "line2": "2 39419  97.4439 331.2078 0011132 343.4327  16.6536 15.08264451657340"}}, "geometry": {"type": "Point", "coordinates": [175.80276023063468, 72.22016437172242]}}]}